     2              NAVIGATION DATA                         RINEX VERSION / TYPE
CCRINEXN V1.6.0 UX  CDDIS               08-SEP-17 17:31     PGM / RUN BY / DATE 
IGS BROADCAST EPHEMERIS FILE                                COMMENT             
    0.1304D-07  0.2235D-07 -0.5960D-07 -0.1192D-06          ION ALPHA           
    0.1044D+06  0.9830D+05 -0.1311D+06 -0.3277D+06          ION BETA            
    0.279396772385D-08 0.710542735760D-14   589824     1965 DELTA-UTC: A0,A1,T,W
    18                                                      LEAP SECONDS        
                                                            END OF HEADER       
29 17  9  7 12  0  0.0 0.565803144127D-03-0.443378667114D-11 0.000000000000D+00
    0.320000000000D+02 0.917187500000D+02 0.424946272147D-08-0.305576080534D+01
    0.477768480778D-05 0.544774462469D-03 0.798143446445D-05 0.515357216072D+04
    0.388800000000D+06-0.745058059692D-08 0.101676831436D+01-0.163912773132D-06
    0.981848448100D+00 0.233031250000D+03 0.888189610697D+00-0.801747681723D-08
    0.424303388225D-09 0.100000000000D+01 0.196500000000D+04 0.000000000000D+00
    0.200000000000D+01 0.000000000000D+00-0.102445483208D-07 0.320000000000D+02
    0.381600000000D+06 0.400000000000D+01 0.000000000000D+00 0.000000000000D+00
30 17  9  7 12  0  0.0 0.141822267324D-03-0.204636307899D-11 0.000000000000D+00
    0.430000000000D+02-0.391250000000D+02 0.530700683399D-08-0.904541788608D+00
   -0.211782753468D-05 0.305542256683D-02 0.344403088093D-05 0.515362451553D+04
    0.388800000000D+06 0.223517417908D-07-0.107759151367D+01-0.223517417908D-07
    0.946594642998D+00 0.301250000000D+03-0.306526499204D+01-0.867214655642D-08
   -0.146434669945D-09 0.100000000000D+01 0.196500000000D+04 0.000000000000D+00
    0.200000000000D+01 0.000000000000D+00 0.372529029846D-08 0.430000000000D+02
    0.382500000000D+06 0.000000000000D+00 0.000000000000D+00 0.000000000000D+00
31 17  9  7 12  0  0.0 0.176848843694D-03-0.250111042988D-11 0.000000000000D+00
    0.400000000000D+01-0.332500000000D+02 0.486091655816D-08-0.108432887170D+01
   -0.202842056751D-05 0.849186663982D-02 0.363402068615D-05 0.515376837158D+04
    0.388800000000D+06-0.745058059692D-08-0.110363982922D+01-0.137835741043D-06
    0.965601111676D+00 0.308656250000D+03-0.244314595792D+00-0.845142356098D-08
   -0.235724096492D-10 0.100000000000D+01 0.196500000000D+04 0.000000000000D+00
    0.200000000000D+01 0.000000000000D+00-0.135041773319D-07 0.400000000000D+01
    0.000000000000D+00 0.000000000000D+00 0.000000000000D+00 0.000000000000D+00
32 17  9  7 12  0  0.0-0.496167223901D-03-0.602540239925D-11 0.000000000000D+00
    0.260000000000D+02 0.712500000000D+02 0.446054294238D-08 0.255042748409D+01
    0.384263694286D-05 0.143306131940D-02 0.897422432900D-05 0.515376121712D+04
    0.388800000000D+06-0.279396772385D-07-0.219027773425D+01-0.670552253723D-07
    0.957723100326D+00 0.202687500000D+03-0.254772526959D+01-0.808033657845D-08
    0.583238579942D-09 0.100000000000D+01 0.196500000000D+04 0.000000000000D+00
    0.200000000000D+01 0.000000000000D+00 0.931322574616D-09 0.260000000000D+02
    0.381600000000D+06 0.400000000000D+01 0.000000000000D+00 0.000000000000D+00
 3 17  9  7 13 59 44.0-0.704550184310D-04 0.409272615798D-11 0.000000000000D+00
    0.150000000000D+02-0.660312500000D+02 0.431339408635D-08-0.110412637529D+00
   -0.359676778317D-05 0.947677064687D-03 0.111721456051D-04 0.515367201424D+04
    0.395984000000D+06-0.745058059692D-08 0.305403293817D+01 0.670552253723D-07
    0.960650073171D+00 0.162062500000D+03 0.400954846293D+00-0.795318833013D-08
   -0.412874345823D-09 0.100000000000D+01 0.196500000000D+04 0.000000000000D+00
    0.200000000000D+01 0.000000000000D+00 0.232830643654D-08 0.150000000000D+02
    0.394680000000D+06 0.000000000000D+00 0.000000000000D+00 0.000000000000D+00
13 17  9  7 13 59 44.0-0.909934751689D-04-0.682121026330D-12 0.000000000000D+00
    0.270000000000D+02 0.831562500000D+02 0.439339728835D-08 0.137330409478D+01
    0.428780913353D-05 0.350561155938D-02 0.827945768833D-05 0.515369647980D+04
    0.395984000000D+06 0.726431608200D-07-0.206624211098D+01-0.651925802231D-07
    0.969117840928D+00 0.223718750000D+03 0.176400412965D+01-0.814319633967D-08
    0.611096883210D-09 0.100000000000D+01 0.196500000000D+04 0.000000000000D+00
    0.200000000000D+01 0.630000000000D+02-0.111758708954D-07 0.270000000000D+02
    0.388800000000D+06 0.400000000000D+01 0.000000000000D+00 0.000000000000D+00
23 17  9  7 13 59 44.0-0.217111315578D-03-0.341060513165D-12 0.000000000000D+00
    0.260000000000D+02 0.700625000000D+02 0.484055862060D-08 0.161829253112D+01
    0.366941094399D-05 0.118862400996D-01 0.948458909988D-05 0.515369104958D+04
    0.395984000000D+06-0.257045030594D-06-0.219319436134D+01 0.335276126862D-07
    0.944121955955D+00 0.192593750000D+03-0.242445833663D+01-0.833606161876D-08
    0.366086688741D-09 0.100000000000D+01 0.196500000000D+04 0.000000000000D+00
    0.200000000000D+01 0.000000000000D+00-0.204890966415D-07 0.260000000000D+02
    0.388830000000D+06 0.000000000000D+00 0.000000000000D+00 0.000000000000D+00
26 17  9  7 13 59 44.0-0.432482454926D-03 0.101181285572D-10 0.000000000000D+00
    0.200000000000D+01-0.459687500000D+02 0.441339812146D-08-0.145416556767D+01
   -0.261329114437D-05 0.187578925397D-02 0.117309391499D-04 0.515376461029D+04
    0.395984000000D+06-0.558793544769D-07-0.102395916675D+00-0.726431608200D-07
    0.958466940041D+00 0.151562500000D+03 0.213886084071D-02-0.793747348477D-08
   -0.276082928534D-09 0.100000000000D+01 0.196500000000D+04 0.000000000000D+00
    0.200000000000D+01 0.000000000000D+00 0.745058059692D-08 0.200000000000D+01
    0.394218000000D+06 0.400000000000D+01 0.000000000000D+00 0.000000000000D+00
 1 17  9  7 14  0  0.0 0.553182326257D-04-0.454747350886D-12 0.000000000000D+00
    0.770000000000D+02-0.295312500000D+02 0.494842034016D-08 0.801265246451D+00
   -0.136159360409D-05 0.702032248955D-02 0.273995101452D-05 0.515367734528D+04
    0.396000000000D+06 0.558793544769D-07 0.201150016118D+01 0.521540641785D-07
    0.968189416061D+00 0.328031250000D+03 0.619342238593D+00-0.861857341050D-08
   -0.313227332960D-09 0.100000000000D+01 0.196500000000D+04 0.000000000000D+00
    0.200000000000D+01 0.000000000000D+00 0.558793544769D-08 0.770000000000D+02
    0.388830000000D+06 0.000000000000D+00 0.000000000000D+00 0.000000000000D+00
 2 17  9  7 14  0  0.0 0.335915014148D-03-0.898126018001D-11 0.000000000000D+00
    0.620000000000D+02-0.253750000000D+02 0.553737351098D-08 0.119052153039D+01
   -0.146776437759D-05 0.170480656670D-01 0.280514359474D-05 0.515357128143D+04
    0.396000000000D+06-0.389292836189D-06 0.195591237263D+01-0.745058059692D-08
    0.947133602499D+00 0.325250000000D+03-0.195793032183D+01-0.904251951438D-08
   -0.265368196508D-09 0.100000000000D+01 0.196500000000D+04 0.000000000000D+00
    0.200000000000D+01 0.000000000000D+00-0.204890966415D-07 0.620000000000D+02
    0.390348000000D+06 0.400000000000D+01 0.000000000000D+00 0.000000000000D+00
 3 17  9  7 14  0  0.0-0.704559497535D-04 0.409272615798D-11 0.000000000000D+00
    0.104000000000D+03-0.660312500000D+02 0.431339408635D-08-0.108078411294D+00
   -0.359676778317D-05 0.947686610743D-03 0.111721456051D-04 0.515367200661D+04
    0.396000000000D+06-0.745058059692D-08 0.305403279627D+01 0.670552253723D-07
    0.960650062931D+00 0.162062500000D+03 0.400954454231D+00-0.795318833013D-08
   -0.412874345823D-09 0.100000000000D+01 0.196500000000D+04 0.000000000000D+00
    0.200000000000D+01 0.000000000000D+00 0.232830643654D-08 0.104000000000D+03
    0.388830000000D+06 0.000000000000D+00 0.000000000000D+00 0.000000000000D+00
 4 17  9  7 14  0  0.0 0.223349779844D-04 0.659383658785D-11 0.000000000000D+00
    0.122000000000D+03 0.902187500000D+02 0.457304762865D-08-0.305491844834D+01
    0.459514558315D-05 0.123287970200D-01 0.100247561932D-04 0.515366704369D+04
    0.396000000000D+06-0.160187482834D-06 0.864426384886D+00-0.171363353729D-06
    0.956934982469D+00 0.185375000000D+03 0.437471124828D+00-0.790818655057D-08
    0.486091676241D-09 0.100000000000D+01 0.196500000000D+04 0.000000000000D+00
    0.200000000000D+01 0.630000000000D+02-0.558793544769D-08 0.122000000000D+03
    0.388800000000D+06 0.400000000000D+01 0.000000000000D+00 0.000000000000D+00
 5 17  9  7 14  0  0.0-0.302987173200D-04 0.136424205266D-11 0.000000000000D+00
    0.120000000000D+02-0.758125000000D+02 0.454518911397D-08-0.256045505314D+01
   -0.395067036152D-05 0.516408798285D-02 0.123549252749D-04 0.515356167603D+04
    0.396000000000D+06 0.521540641785D-07 0.303581373593D+01-0.558793544769D-07
    0.947579911010D+00 0.133281250000D+03 0.575717569428D+00-0.804069166804D-08
   -0.388944765284D-09 0.100000000000D+01 0.196500000000D+04 0.000000000000D+00
    0.200000000000D+01 0.000000000000D+00-0.107102096081D-07 0.120000000000D+02
    0.388800000000D+06 0.000000000000D+00 0.000000000000D+00 0.000000000000D+00
 6 17  9  7 14  0  0.0 0.395415816456D-03 0.318323145621D-11 0.000000000000D+00
    0.220000000000D+02-0.358125000000D+02 0.488234608298D-08 0.942716457410D+00
   -0.190548598766D-05 0.569111783989D-03 0.273622572422D-05 0.515373551559D+04
    0.396000000000D+06-0.428408384323D-07 0.200313376633D+01-0.465661287308D-07
    0.967942212164D+00 0.330750000000D+03-0.109928245604D+01-0.847428172079D-08
   -0.253939147488D-09 0.100000000000D+01 0.196500000000D+04 0.000000000000D+00
    0.200000000000D+01 0.000000000000D+00 0.465661287308D-08 0.220000000000D+02
    0.391350000000D+06 0.000000000000D+00 0.000000000000D+00 0.000000000000D+00
